{
  "type": "FeatureCollection",
  "features": [
    {
      "type": "Feature",
      "properties": {
        "norad_id": 34056,
        "name": "COSMOS 2251 DEB",
        "group": "cosmos-2251-debris",
        "lat": -40.11169587016048,
        "lon": 77.34247867706945,
        "alt_km": 919.6042647018849,
        "timestamp": "2025-12-04T09:47:37.913359+00:00",
        "meta_object_name": "COSMOS 2251 DEB",
        "meta_object_id": "1993-036JT",
        "meta_epoch": "2025-12-03T17:41:46.568256",
        "meta_mean_motion": 14.20482516,
        "meta_eccentricity": 0.01248212,
        "meta_inclination": 74.0595,
        "meta_ra_of_asc_node": 92.4731,
        "meta_arg_of_pericenter": 142.6141,
        "meta_mean_anomaly": 346.7228,
        "meta_ephemeris_type": 0,
        "meta_classification_type": "U",
        "meta_norad_cat_id": 34056,
        "meta_element_set_no": 999,
        "meta_rev_at_epoch": 86283,
        "meta_bstar": 0.0021548056,
        "meta_mean_motion_dot": 4.982e-05,
        "meta_mean_motion_ddot": 0,
        "tle_line1": "1 34056U 93036JT  25337.73734454  .00004982  00000+0  21548-2 0  9990",
        "tle_line2": "2 34056  74.0595  92.4731 0124821 142.6141 346.7228 14.20482516862835"
      },
      "geometry": {
        "type": "Point",
        "coordinates": [
          77.34247867706945,
          -40.11169587016048
        ]
      }
    },
    {
      "type": "Feature",
      "properties": {
        "norad_id": 34058,
        "name": "COSMOS 2251 DEB",
        "group": "cosmos-2251-debris",
        "lat": -59.81190935515702,
        "lon": 41.314374480816014,
        "alt_km": 890.9537787262252,
        "timestamp": "2025-12-04T09:47:37.913369+00:00",
        "meta_object_name": "COSMOS 2251 DEB",
        "meta_object_id": "1993-036JV",
        "meta_epoch": "2025-12-04T00:23:34.393056",
        "meta_mean_motion": 13.56058063,
        "meta_eccentricity": 0.0378315,
        "meta_inclination": 73.9321,
        "meta_ra_of_asc_node": 192.2519,
        "meta_arg_of_pericenter": 189.152,
        "meta_mean_anomaly": 299.8433,
        "meta_ephemeris_type": 0,
        "meta_classification_type": "U",
        "meta_norad_cat_id": 34058,
        "meta_element_set_no": 999,
        "meta_rev_at_epoch": 83024,
        "meta_bstar": 0.00081213,
        "meta_mean_motion_dot": 8.8e-06,
        "meta_mean_motion_ddot": 0,
        "tle_line1": "1 34058U 93036JV  25338.01637029  .00000880  00000+0  81213-3 0  9993",
        "tle_line2": "2 34058  73.9321 192.2519 0378315 189.1520 299.8433 13.56058063830241"
      },
      "geometry": {
        "type": "Point",
        "coordinates": [
          41.314374480816014,
          -59.81190935515702
        ]
      }
    },
    {
      "type": "Feature",
      "properties": {
        "norad_id": 34059,
        "name": "COSMOS 2251 DEB",
        "group": "cosmos-2251-debris",
        "lat": 70.82996581228538,
        "lon": -102.59388091874791,
        "alt_km": 721.5607642333325,
        "timestamp": "2025-12-04T09:47:37.913379+00:00",
        "meta_object_name": "COSMOS 2251 DEB",
        "meta_object_id": "1993-036JW",
        "meta_epoch": "2025-12-04T01:51:40.921344",
        "meta_mean_motion": 14.52867487,
        "meta_eccentricity": 0.0018809,
        "meta_inclination": 74.0383,
        "meta_ra_of_asc_node": 202.6159,
        "meta_arg_of_pericenter": 280.7537,
        "meta_mean_anomaly": 230.4201,
        "meta_ephemeris_type": 0,
        "meta_classification_type": "U",
        "meta_norad_cat_id": 34059,
        "meta_element_set_no": 999,
        "meta_rev_at_epoch": 88333,
        "meta_bstar": 0.0014619,
        "meta_mean_motion_dot": 6.007e-05,
        "meta_mean_motion_ddot": 0,
        "tle_line1": "1 34059U 93036JW  25338.07755696  .00006007  00000+0  14619-2 0  9993",
        "tle_line2": "2 34059  74.0383 202.6159 0018809 280.7537 230.4201 14.52867487883330"
      },
      "geometry": {
        "type": "Point",
        "coordinates": [
          -102.59388091874791,
          70.82996581228538
        ]
      }
    },
    {
      "type": "Feature",
      "properties": {
        "norad_id": 34061,
        "name": "COSMOS 2251 DEB",
        "group": "cosmos-2251-debris",
        "lat": 72.59603497981497,
        "lon": -15.284592057455571,
        "alt_km": 749.0339160262829,
        "timestamp": "2025-12-04T09:47:37.913389+00:00",
        "meta_object_name": "COSMOS 2251 DEB",
        "meta_object_id": "1993-036JY",
        "meta_epoch": "2025-12-04T02:50:14.085312",
        "meta_mean_motion": 14.40325984,
        "meta_eccentricity": 0.0020157,
        "meta_inclination": 74.0391,
        "meta_ra_of_asc_node": 279.3248,
        "meta_arg_of_pericenter": 357.7063,
        "meta_mean_anomaly": 22.7044,
        "meta_ephemeris_type": 0,
        "meta_classification_type": "U",
        "meta_norad_cat_id": 34061,
        "meta_element_set_no": 999,
        "meta_rev_at_epoch": 88056,
        "meta_bstar": 0.0006821,
        "meta_mean_motion_dot": 2.142e-05,
        "meta_mean_motion_ddot": 0,
        "tle_line1": "1 34061U 93036JY  25338.11821858  .00002142  00000+0  68210-3 0  9998",
        "tle_line2": "2 34061  74.0391 279.3248 0020157 357.7063  22.7044 14.40325984880567"
      },
      "geometry": {
        "type": "Point",
        "coordinates": [
          -15.284592057455571,
          72.59603497981497
        ]
      }
    },
    {
      "type": "Feature",
      "properties": {
        "norad_id": 34062,
        "name": "COSMOS 2251 DEB",
        "group": "cosmos-2251-debris",
        "lat": 36.441280532017174,
        "lon": -37.794996322287666,
        "alt_km": 634.984206150546,
        "timestamp": "2025-12-04T09:47:37.913399+00:00",
        "meta_object_name": "COSMOS 2251 DEB",
        "meta_object_id": "1993-036JZ",
        "meta_epoch": "2025-12-03T22:20:10.307040",
        "meta_mean_motion": 14.78100103,
        "meta_eccentricity": 0.00762,
        "meta_inclination": 74.0267,
        "meta_ra_of_asc_node": 155.3528,
        "meta_arg_of_pericenter": 236.1012,
        "meta_mean_anomaly": 247.2142,
        "meta_ephemeris_type": 0,
        "meta_classification_type": "U",
        "meta_norad_cat_id": 34062,
        "meta_element_set_no": 999,
        "meta_rev_at_epoch": 88465,
        "meta_bstar": 0.0051158,
        "meta_mean_motion_dot": 0.00039025,
        "meta_mean_motion_ddot": 0,
        "tle_line1": "1 34062U 93036JZ  25337.93067485  .00039025  00000+0  51158-2 0  9998",
        "tle_line2": "2 34062  74.0267 155.3528 0076200 236.1012 247.2142 14.78100103884650"
      },
      "geometry": {
        "type": "Point",
        "coordinates": [
          -37.794996322287666,
          36.441280532017174
        ]
      }
    },
    {
      "type": "Feature",
      "properties": {
        "norad_id": 34064,
        "name": "COSMOS 2251 DEB",
        "group": "cosmos-2251-debris",
        "lat": -2.7165254333829556,
        "lon": -74.45395541149861,
        "alt_km": 738.4162689071045,
        "timestamp": "2025-12-04T09:47:37.913409+00:00",
        "meta_object_name": "COSMOS 2251 DEB",
        "meta_object_id": "1993-036KB",
        "meta_epoch": "2025-12-03T07:52:30.877824",
        "meta_mean_motion": 14.42279449,
        "meta_eccentricity": 0.0021788,
        "meta_inclination": 74.0325,
        "meta_ra_of_asc_node": 288.3269,
        "meta_arg_of_pericenter": 356.1066,
        "meta_mean_anomaly": 156.1404,
        "meta_ephemeris_type": 0,
        "meta_classification_type": "U",
        "meta_norad_cat_id": 34064,
        "meta_element_set_no": 999,
        "meta_rev_at_epoch": 88006,
        "meta_bstar": 0.00084902,
        "meta_mean_motion_dot": 2.784e-05,
        "meta_mean_motion_ddot": 0,
        "tle_line1": "1 34064U 93036KB  25337.32813516  .00002784  00000+0  84902-3 0  9993",
        "tle_line2": "2 34064  74.0325 288.3269 0021788 356.1066 156.1404 14.42279449880060"
      },
      "geometry": {
        "type": "Point",
        "coordinates": [
          -74.45395541149861,
          -2.7165254333829556
        ]
      }
    },
    {
      "type": "Feature",
      "properties": {
        "norad_id": 34065,
        "name": "COSMOS 2251 DEB",
        "group": "cosmos-2251-debris",
        "lat": 39.686311798366766,
        "lon": 79.72532300571193,
        "alt_km": 768.1311938123181,
        "timestamp": "2025-12-04T09:47:37.913419+00:00",
        "meta_object_name": "COSMOS 2251 DEB",
        "meta_object_id": "1993-036KC",
        "meta_epoch": "2025-12-04T04:28:02.280000",
        "meta_mean_motion": 14.38047501,
        "meta_eccentricity": 0.0015966,
        "meta_inclination": 74.0356,
        "meta_ra_of_asc_node": 273.8754,
        "meta_arg_of_pericenter": 13.3668,
        "meta_mean_anomaly": 56.2647,
        "meta_ephemeris_type": 0,
        "meta_classification_type": "U",
        "meta_norad_cat_id": 34065,
        "meta_element_set_no": 999,
        "meta_rev_at_epoch": 88082,
        "meta_bstar": 0.00032334,
        "meta_mean_motion_dot": 9.54e-06,
        "meta_mean_motion_ddot": 0,
        "tle_line1": "1 34065U 93036KC  25338.18613750  .00000954  00000+0  32334-3 0  9996",
        "tle_line2": "2 34065  74.0356 273.8754 0015966  13.3668  56.2647 14.38047501880824"
      },
      "geometry": {
        "type": "Point",
        "coordinates": [
          79.72532300571193,
          39.686311798366766
        ]
      }
    }
  ]
}